CCSDS_OMM_VERS = 2.0
CREATION_DATE  = 
ORIGINATOR     = 

OBJECT_NAME    = CZ-2C R/B
OBJECT_ID      = 2022-132E
CENTER_NAME    = EARTH
REF_FRAME      = TEME
TIME_SYSTEM    = UTC
MEAN_ELEMENT_THEORY = SGP/SGP4

EPOCH          = 2026-01-12T22:15:58.128768
MEAN_MOTION    = 15.57082466
ECCENTRICITY   = .00171709
INCLINATION    = 97.2949
RA_OF_ASC_NODE = 14.7737
ARG_OF_PERICENTER = 302.1065
MEAN_ANOMALY   = 57.8523

EPHEMERIS_TYPE = 0
CLASSIFICATION_TYPE = U
NORAD_CAT_ID   = 54039
ELEMENT_SET_NO = 999
REV_AT_EPOCH   = 18168
BSTAR          = .34895422E-3
MEAN_MOTION_DOT = .25363E-3
MEAN_MOTION_DDOT = 0

CCSDS_OMM_VERS = 2.0
CREATION_DATE  = 
ORIGINATOR     = 

OBJECT_NAME    = GSLV R/B
OBJECT_ID      = 2022-138AN
CENTER_NAME    = EARTH
REF_FRAME      = TEME
TIME_SYSTEM    = UTC
MEAN_ELEMENT_THEORY = SGP/SGP4

EPOCH          = 2026-01-12T22:55:08.479200
MEAN_MOTION    = 14.96326435
ECCENTRICITY   = .00216748
INCLINATION    = 87.3830
RA_OF_ASC_NODE = 185.0181
ARG_OF_PERICENTER = 0.5726
MEAN_ANOMALY   = 359.5526

EPHEMERIS_TYPE = 0
CLASSIFICATION_TYPE = U
NORAD_CAT_ID   = 54149
ELEMENT_SET_NO = 999
REV_AT_EPOCH   = 17559
BSTAR          = .21423408E-3
MEAN_MOTION_DOT = .2461E-4
MEAN_MOTION_DDOT = 0

CCSDS_OMM_VERS = 2.0
CREATION_DATE  = 
ORIGINATOR     = 

OBJECT_NAME    = XRISM
OBJECT_ID      = 2023-137A
CENTER_NAME    = EARTH
REF_FRAME      = TEME
TIME_SYSTEM    = UTC
MEAN_ELEMENT_THEORY = SGP/SGP4

EPOCH          = 2026-01-12T21:23:54.351456
MEAN_MOTION    = 15.10751707
ECCENTRICITY   = .00079409
INCLINATION    = 31.0025
RA_OF_ASC_NODE = 284.3605
ARG_OF_PERICENTER = 201.6960
MEAN_ANOMALY   = 158.3342

EPHEMERIS_TYPE = 0
CLASSIFICATION_TYPE = U
NORAD_CAT_ID   = 57800
ELEMENT_SET_NO = 999
REV_AT_EPOCH   = 12934
BSTAR          = .21753464E-3
MEAN_MOTION_DOT = .3795E-4
MEAN_MOTION_DDOT = 0

CCSDS_OMM_VERS = 2.0
CREATION_DATE  = 
ORIGINATOR     = 

OBJECT_NAME    = ACS3
OBJECT_ID      = 2024-077B
CENTER_NAME    = EARTH
REF_FRAME      = TEME
TIME_SYSTEM    = UTC
MEAN_ELEMENT_THEORY = SGP/SGP4

EPOCH          = 2026-01-12T20:40:37.115616
MEAN_MOTION    = 13.87090502
ECCENTRICITY   = .00608014
INCLINATION    = 97.2428
RA_OF_ASC_NODE = 326.5124
ARG_OF_PERICENTER = 259.3437
MEAN_ANOMALY   = 100.0874

EPHEMERIS_TYPE = 0
CLASSIFICATION_TYPE = U
NORAD_CAT_ID   = 59588
ELEMENT_SET_NO = 999
REV_AT_EPOCH   = 8645
BSTAR          = .84637087E-2
MEAN_MOTION_DOT = .10048E-3
MEAN_MOTION_DDOT = 0

CCSDS_OMM_VERS = 2.0
CREATION_DATE  = 
ORIGINATOR     = 

OBJECT_NAME    = SZ-21 MODULE
OBJECT_ID      = 2025-246C
CENTER_NAME    = EARTH
REF_FRAME      = TEME
TIME_SYSTEM    = UTC
MEAN_ELEMENT_THEORY = SGP/SGP4

EPOCH          = 2026-01-12T20:10:09.020352
MEAN_MOTION    = 15.64408480
ECCENTRICITY   = .00016707
INCLINATION    = 41.4741
RA_OF_ASC_NODE = 186.0642
ARG_OF_PERICENTER = 152.3579
MEAN_ANOMALY   = 207.7351

EPHEMERIS_TYPE = 0
CLASSIFICATION_TYPE = U
NORAD_CAT_ID   = 66515
ELEMENT_SET_NO = 999
REV_AT_EPOCH   = 931
BSTAR          = .28252809E-3
MEAN_MOTION_DOT = .27649E-3
MEAN_MOTION_DDOT = 0

