CZ-2C R/B               
1 54039U 22132E   26012.92775612  .00025363  00000+0  34895-3 0  9991
2 54039  97.2949  14.7737 0017170 302.1065  57.8523 15.57082466181683
GSLV R/B                
1 54149U 22138AN  26012.95495925  .00002461  00000+0  21423-3 0  9995
2 54149  87.3830 185.0181 0021674   0.5726 359.5526 14.96326435175593
XRISM                   
1 57800U 23137A   26012.89160129  .00003795  00000+0  21753-3 0  9997
2 57800  31.0025 284.3605 0007940 201.6960 158.3342 15.10751707129344
ACS3                    
1 59588U 24077B   26012.86154069  .00010048  00000+0  84637-2 0  9997
2 59588  97.2428 326.5124 0060801 259.3437 100.0874 13.87090502 86458
SZ-21 MODULE            
1 66515U 25246C   26012.84038218  .00027649  00000+0  28253-3 0  9997
2 66515  41.4741 186.0642 0001670 152.3579 207.7351 15.64408480  9317
